[{"OBJECT_NAME":"STARLINK-31158","OBJECT_ID":"2024-019B","EPOCH":"2026-03-09T21:12:33.105600","MEAN_MOTION":15.27541907,"ECCENTRICITY":0.00012274,"INCLINATION":43.0035,"RA_OF_ASC_NODE":247.6901,"ARG_OF_PERICENTER":275.2853,"MEAN_ANOMALY":84.7859,"EPHEMERIS_TYPE":0,"CLASSIFICATION_TYPE":"U","NORAD_CAT_ID":58854,"ELEMENT_SET_NO":999,"REV_AT_EPOCH":11911,"BSTAR":-0.00012830455,"MEAN_MOTION_DOT":-3.787e-5,"MEAN_MOTION_DDOT":0},{"OBJECT_NAME":"OBJECT E","OBJECT_ID":"2024-174E","EPOCH":"2026-03-09T23:40:24.424320","MEAN_MOTION":15.26241811,"ECCENTRICITY":0.00122518,"INCLINATION":97.4515,"RA_OF_ASC_NODE":80.1669,"ARG_OF_PERICENTER":217.7524,"MEAN_ANOMALY":142.2856,"EPHEMERIS_TYPE":0,"CLASSIFICATION_TYPE":"U","NORAD_CAT_ID":61242,"ELEMENT_SET_NO":999,"REV_AT_EPOCH":8070,"BSTAR":0.00031155901,"MEAN_MOTION_DOT":8.013e-5,"MEAN_MOTION_DDOT":0}]
